[{"OBJECT_NAME":"STARLINK-3229","OBJECT_ID":"2021-115AD","EPOCH":"2026-03-09T12:13:42.408768","MEAN_MOTION":15.08832801,"ECCENTRICITY":0.0001278,"INCLINATION":53.2178,"RA_OF_ASC_NODE":149.8526,"ARG_OF_PERICENTER":93.5177,"MEAN_ANOMALY":266.5961,"EPHEMERIS_TYPE":0,"CLASSIFICATION_TYPE":"U","NORAD_CAT_ID":49751,"ELEMENT_SET_NO":999,"REV_AT_EPOCH":23551,"BSTAR":3.5157125e-5,"MEAN_MOTION_DOT":2.72e-6,"MEAN_MOTION_DDOT":0},{"OBJECT_NAME":"JILIN-01 KUANFU 02B 6","OBJECT_ID":"2024-169F","EPOCH":"2026-03-09T21:43:38.712288","MEAN_MOTION":15.09238946,"ECCENTRICITY":0.00150747,"INCLINATION":97.5549,"RA_OF_ASC_NODE":159.9459,"ARG_OF_PERICENTER":324.4254,"MEAN_ANOMALY":35.5968,"EPHEMERIS_TYPE":0,"CLASSIFICATION_TYPE":"U","NORAD_CAT_ID":61194,"ELEMENT_SET_NO":999,"REV_AT_EPOCH":8086,"BSTAR":0.00036442477,"MEAN_MOTION_DOT":5.751e-5,"MEAN_MOTION_DDOT":0}]
